{"type":"FeatureCollection","features":[{"type":"Feature","properties":{"name":"Antofagasta","comuna":"Antofagasta","cut":"02101","metro":null,"es_bbox":false},"geometry":{"type":"Polygon","coordinates":[[[-70.5017,-23.8435],[-70.5019,-23.826],[-70.5066,-23.8127],[-70.5002,-23.7925],[-70.4935,-23.7908],[-70.486,-23.7769],[-70.4753,-23.7741],[-70.4737,-23.7622],[-70.4668,-23.7576],[-70.4568,-23.7569],[-70.4464,-23.7479],[-70.4396,-23.7321],[-70.4343,-23.7125],[-70.4244,-23.7019],[-70.4197,-23.6855],[-70.4136,-23.6744],[-70.407,-23.6689],[-70.4029,-23.6572],[-70.4047,-23.6454],[-70.3989,-23.6442],[-70.3972,-23.6268],[-70.3922,-23.6132],[-70.3942,-23.6002],[-70.3975,-23.5961],[-70.3944,-23.5811],[-70.4002,-23.5648],[-70.4065,-23.5579],[-70.4009,-23.5444],[-70.4033,-23.5352],[-70.4133,-23.5221],[-70.4154,-23.5146],[-70.4317,-23.4952],[-70.4566,-23.4792],[-70.4727,-23.4706],[-70.487,-23.4653],[-70.5036,-23.4646],[-70.5135,-23.4674],[-70.5162,-23.4758],[-70.5157,-23.4936],[-70.5232,-23.5041],[-70.5287,-23.5027],[-70.5333,-23.5113],[-70.5289,-23.5148],[-70.5312,-23.5265],[-70.5374,-23.5332],[-70.5469,-23.5377],[-70.55,-23.536201913875598],[-70.55,-23.4],[-70.3,-23.4],[-70.3,-23.85],[-70.50343943661973,-23.85],[-70.5017,-23.8435]]]}}]}